[{"OBJECT_NAME":"STARLINK-4557","OBJECT_ID":"2022-097AW","EPOCH":"2026-03-09T11:13:24.248064","MEAN_MOTION":15.08842876,"ECCENTRICITY":0.00012694,"INCLINATION":53.2167,"RA_OF_ASC_NODE":104.8783,"ARG_OF_PERICENTER":91.0838,"MEAN_ANOMALY":269.03,"EPHEMERIS_TYPE":0,"CLASSIFICATION_TYPE":"U","NORAD_CAT_ID":53432,"ELEMENT_SET_NO":999,"REV_AT_EPOCH":19875,"BSTAR":-4.6281808e-5,"MEAN_MOTION_DOT":-1.024e-5,"MEAN_MOTION_DDOT":0},{"OBJECT_NAME":"SS 3","OBJECT_ID":"1977-112F","EPOCH":"2026-03-09T11:00:16.769952","MEAN_MOTION":14.02902253,"ECCENTRICITY":0.04940828,"INCLINATION":63.3287,"RA_OF_ASC_NODE":97.995,"ARG_OF_PERICENTER":162.0806,"MEAN_ANOMALY":199.8388,"EPHEMERIS_TYPE":0,"CLASSIFICATION_TYPE":"U","NORAD_CAT_ID":10594,"ELEMENT_SET_NO":999,"REV_AT_EPOCH":35330,"BSTAR":0.00018531048,"MEAN_MOTION_DOT":7.13e-6,"MEAN_MOTION_DDOT":0}]
